{
  "type": "FeatureCollection",
  "features": [
    {
      "type": "Feature",
      "properties": {
        "norad_id": 66711,
        "name": "FLOCK 4H-8",
        "group": "last-30-days",
        "lat": 22.13543483912828,
        "lon": -108.56076413390485,
        "alt_km": 513.90635438152,
        "timestamp": "2025-12-22T18:58:52.138138+00:00",
        "meta_object_name": "FLOCK 4H-8",
        "meta_object_id": "2025-276AX",
        "meta_epoch": "2025-12-22T05:37:41.449728",
        "meta_mean_motion": 15.17471231,
        "meta_eccentricity": 0.00024098,
        "meta_inclination": 97.4433,
        "meta_ra_of_asc_node": 67.844,
        "meta_arg_of_pericenter": 272.0349,
        "meta_mean_anomaly": 88.0609,
        "meta_ephemeris_type": 0,
        "meta_classification_type": "U",
        "meta_norad_cat_id": 66711,
        "meta_element_set_no": 999,
        "meta_rev_at_epoch": 356,
        "meta_bstar": 0.00045919594,
        "meta_mean_motion_dot": 9.135e-05,
        "meta_mean_motion_ddot": 0,
        "tle_line1": "1 66711U 25276AX  25356.23450752  .00009135  00000+0  45920-3 0  9992",
        "tle_line2": "2 66711  97.4433  67.8440 0002409 272.0349  88.0609 15.17471231  3561"
      },
      "geometry": {
        "type": "Point",
        "coordinates": [
          -108.56076413390485,
          22.13543483912828
        ]
      }
    },
    {
      "type": "Feature",
      "properties": {
        "norad_id": 66712,
        "name": "FLOCK 4H-9",
        "group": "last-30-days",
        "lat": -17.838303246645236,
        "lon": -114.0054588794496,
        "alt_km": 515.4883794522375,
        "timestamp": "2025-12-22T18:58:52.138152+00:00",
        "meta_object_name": "FLOCK 4H-9",
        "meta_object_id": "2025-276AY",
        "meta_epoch": "2025-12-22T03:52:21.982656",
        "meta_mean_motion": 15.17903733,
        "meta_eccentricity": 0.00026789,
        "meta_inclination": 97.4428,
        "meta_ra_of_asc_node": 67.7866,
        "meta_arg_of_pericenter": 220.4734,
        "meta_mean_anomaly": 139.6301,
        "meta_ephemeris_type": 0,
        "meta_classification_type": "U",
        "meta_norad_cat_id": 66712,
        "meta_element_set_no": 999,
        "meta_rev_at_epoch": 355,
        "meta_bstar": 0.00048095068,
        "meta_mean_motion_dot": 9.691e-05,
        "meta_mean_motion_ddot": 0,
        "tle_line1": "1 66712U 25276AY  25356.16136554  .00009691  00000+0  48095-3 0  9999",
        "tle_line2": "2 66712  97.4428  67.7866 0002678 220.4734 139.6301 15.17903733  3558"
      },
      "geometry": {
        "type": "Point",
        "coordinates": [
          -114.0054588794496,
          -17.838303246645236
        ]
      }
    },
    {
      "type": "Feature",
      "properties": {
        "norad_id": 66713,
        "name": "FLOCK 4H-10",
        "group": "last-30-days",
        "lat": 40.28988985010517,
        "lon": -105.26583188648796,
        "alt_km": 512.4676675523342,
        "timestamp": "2025-12-22T18:58:52.138162+00:00",
        "meta_object_name": "FLOCK 4H-10",
        "meta_object_id": "2025-276AZ",
        "meta_epoch": "2025-12-21T12:17:32.542944",
        "meta_mean_motion": 15.17170539,
        "meta_eccentricity": 0.00026878,
        "meta_inclination": 97.4432,
        "meta_ra_of_asc_node": 67.1151,
        "meta_arg_of_pericenter": 252.9711,
        "meta_mean_anomaly": 107.1228,
        "meta_ephemeris_type": 0,
        "meta_classification_type": "U",
        "meta_norad_cat_id": 66713,
        "meta_element_set_no": 999,
        "meta_rev_at_epoch": 345,
        "meta_bstar": -0.0036543614,
        "meta_mean_motion_dot": -0.00071864,
        "meta_mean_motion_ddot": 0,
        "tle_line1": "1 66713U 25276AZ  25355.51218221 -.00071864  00000+0 -36544-2 0  9998",
        "tle_line2": "2 66713  97.4432  67.1151 0002687 252.9711 107.1228 15.17170539  3457"
      },
      "geometry": {
        "type": "Point",
        "coordinates": [
          -105.26583188648796,
          40.28988985010517
        ]
      }
    },
    {
      "type": "Feature",
      "properties": {
        "norad_id": 66714,
        "name": "FLOCK 4H-11",
        "group": "last-30-days",
        "lat": 11.204496593172172,
        "lon": -110.12463030229601,
        "alt_km": 514.5384016856324,
        "timestamp": "2025-12-22T18:58:52.138172+00:00",
        "meta_object_name": "FLOCK 4H-11",
        "meta_object_id": "2025-276BA",
        "meta_epoch": "2025-12-22T05:34:56.749728",
        "meta_mean_motion": 15.17772657,
        "meta_eccentricity": 0.00021408,
        "meta_inclination": 97.4419,
        "meta_ra_of_asc_node": 67.8429,
        "meta_arg_of_pericenter": 280.408,
        "meta_mean_anomaly": 79.6912,
        "meta_ephemeris_type": 0,
        "meta_classification_type": "U",
        "meta_norad_cat_id": 66714,
        "meta_element_set_no": 999,
        "meta_rev_at_epoch": 356,
        "meta_bstar": 0.0007264138,
        "meta_mean_motion_dot": 0.00014625,
        "meta_mean_motion_ddot": 0,
        "tle_line1": "1 66714U 25276BA  25356.23260127  .00014625  00000+0  72641-3 0  9990",
        "tle_line2": "2 66714  97.4419  67.8429 0002140 280.4080  79.6912 15.17772657  3561"
      },
      "geometry": {
        "type": "Point",
        "coordinates": [
          -110.12463030229601,
          11.204496593172172
        ]
      }
    },
    {
      "type": "Feature",
      "properties": {
        "norad_id": 66715,
        "name": "FLOCK 4H-12",
        "group": "last-30-days",
        "lat": -29.191668224018528,
        "lon": -115.79399853224336,
        "alt_km": 516.3466862679616,
        "timestamp": "2025-12-22T18:58:52.138182+00:00",
        "meta_object_name": "FLOCK 4H-12",
        "meta_object_id": "2025-276BB",
        "meta_epoch": "2025-12-22T05:24:21.966336",
        "meta_mean_motion": 15.18068857,
        "meta_eccentricity": 0.00019875,
        "meta_inclination": 97.4396,
        "meta_ra_of_asc_node": 67.8365,
        "meta_arg_of_pericenter": 188.8195,
        "meta_mean_anomaly": 171.3005,
        "meta_ephemeris_type": 0,
        "meta_classification_type": "U",
        "meta_norad_cat_id": 66715,
        "meta_element_set_no": 999,
        "meta_rev_at_epoch": 387,
        "meta_bstar": 0.0005900149,
        "meta_mean_motion_dot": 0.00011964,
        "meta_mean_motion_ddot": 0,
        "tle_line1": "1 66715U 25276BB  25356.22525424  .00011964  00000+0  59001-3 0  9992",
        "tle_line2": "2 66715  97.4396  67.8365 0001987 188.8195 171.3005 15.18068857  3879"
      },
      "geometry": {
        "type": "Point",
        "coordinates": [
          -115.79399853224336,
          -29.191668224018528
        ]
      }
    },
    {
      "type": "Feature",
      "properties": {
        "norad_id": 66716,
        "name": "FLOCK 4H-13",
        "group": "last-30-days",
        "lat": -40.31047334279848,
        "lon": -117.95586361252118,
        "alt_km": 517.578265875647,
        "timestamp": "2025-12-22T18:58:52.138194+00:00",
        "meta_object_name": "FLOCK 4H-13",
        "meta_object_id": "2025-276BC",
        "meta_epoch": "2025-12-22T05:21:27.627552",
        "meta_mean_motion": 15.18181821,
        "meta_eccentricity": 0.00016228,
        "meta_inclination": 97.4433,
        "meta_ra_of_asc_node": 67.8537,
        "meta_arg_of_pericenter": 148.4276,
        "meta_mean_anomaly": 211.7056,
        "meta_ephemeris_type": 0,
        "meta_classification_type": "U",
        "meta_norad_cat_id": 66716,
        "meta_element_set_no": 999,
        "meta_rev_at_epoch": 356,
        "meta_bstar": 0.00061794235,
        "meta_mean_motion_dot": 0.00012575,
        "meta_mean_motion_ddot": 0,
        "tle_line1": "1 66716U 25276BC  25356.22323643  .00012575  00000+0  61794-3 0  9993",
        "tle_line2": "2 66716  97.4433  67.8537 0001622 148.4276 211.7056 15.18181821  3569"
      },
      "geometry": {
        "type": "Point",
        "coordinates": [
          -117.95586361252118,
          -40.31047334279848
        ]
      }
    },
    {
      "type": "Feature",
      "properties": {
        "norad_id": 66717,
        "name": "FLOCK 4H-14",
        "group": "last-30-days",
        "lat": -50.87550998067012,
        "lon": -120.83484431037365,
        "alt_km": 517.9905213842785,
        "timestamp": "2025-12-22T18:58:52.138204+00:00",
        "meta_object_name": "FLOCK 4H-14",
        "meta_object_id": "2025-276BD",
        "meta_epoch": "2025-12-22T02:08:53.884320",
        "meta_mean_motion": 15.18330115,
        "meta_eccentricity": 0.000155,
        "meta_inclination": 97.4419,
        "meta_ra_of_asc_node": 67.7227,
        "meta_arg_of_pericenter": 135.1406,
        "meta_mean_anomaly": 224.9953,
        "meta_ephemeris_type": 0,
        "meta_classification_type": "U",
        "meta_norad_cat_id": 66717,
        "meta_element_set_no": 999,
        "meta_rev_at_epoch": 279,
        "meta_bstar": 0.00034264435,
        "meta_mean_motion_dot": 6.968e-05,
        "meta_mean_motion_ddot": 0,
        "tle_line1": "1 66717U 25276BD  25356.08951255  .00006968  00000+0  34264-3 0  9995",
        "tle_line2": "2 66717  97.4419  67.7227 0001550 135.1406 224.9953 15.18330115  2795"
      },
      "geometry": {
        "type": "Point",
        "coordinates": [
          -120.83484431037365,
          -50.87550998067012
        ]
      }
    }
  ]
}